{"type": "FeatureCollection", "features": [ {"type": "Feature", "properties": {"norad_id": 40118, "name": "GAOFEN-2", "group": "resource", "lat": -63.998441158835384, "lon": 75.1904356715877, "alt_km": 639.474599157742, "timestamp": "2025-12-25T03:55:55.963407+00:00", "meta": {"OBJECT_NAME": "GAOFEN-2", "OBJECT_ID": "2014-049A", "EPOCH": "2025-12-24T20:07:00.429888", "MEAN_MOTION": 14.80626428, "ECCENTRICITY": 0.0008736, "INCLINATION": 98.0365, "RA_OF_ASC_NODE": 58.0268, "ARG_OF_PERICENTER": 79.3975, "MEAN_ANOMALY": 280.822, "EPHEMERIS_TYPE": 0, "CLASSIFICATION_TYPE": "U", "NORAD_CAT_ID": 40118, "ELEMENT_SET_NO": 999, "REV_AT_EPOCH": 61343, "BSTAR": 3.3626e-05, "MEAN_MOTION_DOT": 2.05e-06, "MEAN_MOTION_DDOT": 0}, "tle": {"line1": "1 40118U 14049A   25358.83819942  .00000205  00000+0  33626-4 0  9999", "line2": "2 40118  98.0365  58.0268 0008736  79.3975 280.8220 14.80626428613430"}}, "geometry": {"type": "Point", "coordinates": [75.1904356715877, -63.998441158835384]}}, {"type": "Feature", "properties": {"norad_id": 40143, "name": "YAOGAN-21", "group": "resource", "lat": 22.973229077951984, "lon": 38.874810961253175, "alt_km": 488.6513540199958, "timestamp": "2025-12-25T03:55:55.963418+00:00", "meta": {"OBJECT_NAME": "YAOGAN-21", "OBJECT_ID": "2014-053A", "EPOCH": "2025-12-24T19:57:03.157056", "MEAN_MOTION": 15.23791752, "ECCENTRICITY": 0.0008558, "INCLINATION": 97.1737, "RA_OF_ASC_NODE": 41.6174, "ARG_OF_PERICENTER": 2.3249, "MEAN_ANOMALY": 357.8027, "EPHEMERIS_TYPE": 0, "CLASSIFICATION_TYPE": "U", "NORAD_CAT_ID": 40143, "ELEMENT_SET_NO": 999, "REV_AT_EPOCH": 62838, "BSTAR": 0.00019048, "MEAN_MOTION_DOT": 4.521e-05, "MEAN_MOTION_DDOT": 0}, "tle": {"line1": "1 40143U 14053A   25358.83128654  .00004521  00000+0  19048-3 0  9991", "line2": "2 40143  97.1737  41.6174 0008558   2.3249 357.8027 15.23791752628388"}}, "geometry": {"type": "Point", "coordinates": [38.874810961253175, 22.973229077951984]}}, {"type": "Feature", "properties": {"norad_id": 40275, "name": "YAOGAN-22", "group": "resource", "lat": -74.36612343450223, "lon": -174.52496447436744, "alt_km": 1206.980926554682, "timestamp": "2025-12-25T03:55:55.963429+00:00", "meta": {"OBJECT_NAME": "YAOGAN-22", "OBJECT_ID": "2014-063A", "EPOCH": "2025-12-24T06:25:41.917728", "MEAN_MOTION": 13.15523079, "ECCENTRICITY": 0.00060782, "INCLINATION": 100.7429, "RA_OF_ASC_NODE": 141.8504, "ARG_OF_PERICENTER": 220.6211, "MEAN_ANOMALY": 139.4448, "EPHEMERIS_TYPE": 0, "CLASSIFICATION_TYPE": "U", "NORAD_CAT_ID": 40275, "ELEMENT_SET_NO": 999, "REV_AT_EPOCH": 53681, "BSTAR": 6.9396244e-05, "MEAN_MOTION_DOT": -2e-07, "MEAN_MOTION_DDOT": 0}, "tle": {"line1": "1 40275U 14063A   25358.26784627 -.00000020  00000+0  69396-4 0  9996", "line2": "2 40275 100.7429 141.8504 0006078 220.6211 139.4448 13.15523079536813"}}, "geometry": {"type": "Point", "coordinates": [-174.52496447436744, -74.36612343450223]}}, {"type": "Feature", "properties": {"norad_id": 40298, "name": "ASNARO", "group": "resource", "lat": -66.32923823660848, "lon": -122.35157081847566, "alt_km": 517.6565725291821, "timestamp": "2025-12-25T03:55:55.963440+00:00", "meta": {"OBJECT_NAME": "ASNARO", "OBJECT_ID": "2014-070A", "EPOCH": "2025-12-24T20:31:34.623840", "MEAN_MOTION": 15.19731465, "ECCENTRICITY": 0.000584, "INCLINATION": 97.3636, "RA_OF_ASC_NODE": 74.5056, "ARG_OF_PERICENTER": 89.734, "MEAN_ANOMALY": 270.4565, "EPHEMERIS_TYPE": 0, "CLASSIFICATION_TYPE": "U", "NORAD_CAT_ID": 40298, "ELEMENT_SET_NO": 999, "REV_AT_EPOCH": 61753, "BSTAR": 0.00025457, "MEAN_MOTION_DOT": 5.376e-05, "MEAN_MOTION_DDOT": 0}, "tle": {"line1": "1 40298U 14070A   25358.85526185  .00005376  00000+0  25457-3 0  9994", "line2": "2 40298  97.3636  74.5056 0005840  89.7340 270.4565 15.19731465617537"}}, "geometry": {"type": "Point", "coordinates": [-122.35157081847566, -66.32923823660848]}}, {"type": "Feature", "properties": {"norad_id": 40310, "name": "YAOGAN-24", "group": "resource", "lat": 77.7536387421661, "lon": 89.17388708889136, "alt_km": 624.0028190156763, "timestamp": "2025-12-25T03:55:55.963451+00:00", "meta": {"OBJECT_NAME": "YAOGAN-24", "OBJECT_ID": "2014-072A", "EPOCH": "2025-12-24T21:03:39.334176", "MEAN_MOTION": 14.76202986, "ECCENTRICITY": 0.0015208, "INCLINATION": 98.1232, "RA_OF_ASC_NODE": 130.0364, "ARG_OF_PERICENTER": 101.7304, "MEAN_ANOMALY": 258.5613, "EPHEMERIS_TYPE": 0, "CLASSIFICATION_TYPE": "U", "NORAD_CAT_ID": 40310, "ELEMENT_SET_NO": 999, "REV_AT_EPOCH": 59800, "BSTAR": 0.00023976, "MEAN_MOTION_DOT": 1.609e-05, "MEAN_MOTION_DDOT": 0}, "tle": {"line1": "1 40310U 14072A   25358.87753859  .00001609  00000+0  23976-3 0  9992", "line2": "2 40310  98.1232 130.0364 0015208 101.7304 258.5613 14.76202986598001"}}, "geometry": {"type": "Point", "coordinates": [89.17388708889136, 77.7536387421661]}}, {"type": "Feature", "properties": {"norad_id": 40336, "name": "CBERS 4", "group": "resource", "lat": 14.6198995136162, "lon": -121.05550063508382, "alt_km": 773.6831446022343, "timestamp": "2025-12-25T03:55:55.963461+00:00", "meta": {"OBJECT_NAME": "CBERS 4", "OBJECT_ID": "2014-079A", "EPOCH": "2025-12-24T20:28:27.846912", "MEAN_MOTION": 14.35521795, "ECCENTRICITY": 0.0001869, "INCLINATION": 98.3289, "RA_OF_ASC_NODE": 56.4545, "ARG_OF_PERICENTER": 98.5972, "MEAN_ANOMALY": 261.5426, "EPHEMERIS_TYPE": 0, "CLASSIFICATION_TYPE": "U", "NORAD_CAT_ID": 40336, "ELEMENT_SET_NO": 999, "REV_AT_EPOCH": 57894, "BSTAR": 3.2034e-05, "MEAN_MOTION_DOT": 5e-07, "MEAN_MOTION_DDOT": 0}, "tle": {"line1": "1 40336U 14079A   25358.85310008  .00000050  00000+0  32034-4 0  9995", "line2": "2 40336  98.3289  56.4545 0001869  98.5972 261.5426 14.35521795578941"}}, "geometry": {"type": "Point", "coordinates": [-121.05550063508382, 14.6198995136162]}}, {"type": "Feature", "properties": {"norad_id": 40362, "name": "YAOGAN-26", "group": "resource", "lat": 79.65317469271388, "lon": -43.385478666847845, "alt_km": 439.58388388635103, "timestamp": "2025-12-25T03:55:55.963472+00:00", "meta": {"OBJECT_NAME": "YAOGAN-26", "OBJECT_ID": "2014-088A", "EPOCH": "2025-12-24T21:20:12.588576", "MEAN_MOTION": 15.39726, "ECCENTRICITY": 0.0004413, "INCLINATION": 97.0642, "RA_OF_ASC_NODE": 359.1326, "ARG_OF_PERICENTER": 352.306, "MEAN_ANOMALY": 7.8118, "EPHEMERIS_TYPE": 0, "CLASSIFICATION_TYPE": "U", "NORAD_CAT_ID": 40362, "ELEMENT_SET_NO": 999, "REV_AT_EPOCH": 61081, "BSTAR": 0.00070989, "MEAN_MOTION_DOT": 0.00028065, "MEAN_MOTION_DDOT": 0}, "tle": {"line1": "1 40362U 14088A   25358.88903459  .00028065  00000+0  70989-3 0  9991", "line2": "2 40362  97.0642 359.1326 0004413 352.3060   7.8118 15.39726000610819"}}, "geometry": {"type": "Point", "coordinates": [-43.385478666847845, 79.65317469271388]}}, {"type": "Feature", "properties": {"norad_id": 40376, "name": "SMAP", "group": "resource", "lat": 8.926758378922534, "lon": -175.00492286027654, "alt_km": 683.9456731674427, "timestamp": "2025-12-25T03:55:55.963482+00:00", "meta": {"OBJECT_NAME": "SMAP", "OBJECT_ID": "2015-003A", "EPOCH": "2025-12-24T18:56:55.709088", "MEAN_MOTION": 14.63359297, "ECCENTRICITY": 0.0001233, "INCLINATION": 98.129, "RA_OF_ASC_NODE": 3.3397, "ARG_OF_PERICENTER": 92.4119, "MEAN_ANOMALY": 267.7224, "EPHEMERIS_TYPE": 0, "CLASSIFICATION_TYPE": "U", "NORAD_CAT_ID": 40376, "ELEMENT_SET_NO": 999, "REV_AT_EPOCH": 58211, "BSTAR": 0.00010835, "MEAN_MOTION_DOT": 5.13e-06, "MEAN_MOTION_DDOT": 0}, "tle": {"line1": "1 40376U 15003A   25358.78953367  .00000513  00000+0  10835-3 0  9998", "line2": "2 40376  98.1290   3.3397 0001233  92.4119 267.7224 14.63359297582117"}}, "geometry": {"type": "Point", "coordinates": [-175.00492286027654, 8.926758378922534]}}, {"type": "Feature", "properties": {"norad_id": 40536, "name": "KOMPSAT-3A", "group": "resource", "lat": -50.861522468036085, "lon": 144.65507775066118, "alt_km": 442.6902431657081, "timestamp": "2025-12-25T03:55:55.963493+00:00", "meta": {"OBJECT_NAME": "KOMPSAT-3A", "OBJECT_ID": "2015-014A", "EPOCH": "2025-12-24T20:42:48.714048", "MEAN_MOTION": 15.4438337, "ECCENTRICITY": 0.0005616, "INCLINATION": 97.6806, "RA_OF_ASC_NODE": 333.8832, "ARG_OF_PERICENTER": 100.5482, "MEAN_ANOMALY": 259.6399, "EPHEMERIS_TYPE": 0, "CLASSIFICATION_TYPE": "U", "NORAD_CAT_ID": 40536, "ELEMENT_SET_NO": 999, "REV_AT_EPOCH": 59482, "BSTAR": 0.00043268, "MEAN_MOTION_DOT": 0.00019919, "MEAN_MOTION_DDOT": 0}, "tle": {"line1": "1 40536U 15014A   25358.86306382  .00019919  00000+0  43268-3 0  9992", "line2": "2 40536  97.6806 333.8832 0005616 100.5482 259.6399 15.44383370594823"}}, "geometry": {"type": "Point", "coordinates": [144.65507775066118, -50.861522468036085]}}, {"type": "Feature", "properties": {"norad_id": 40697, "name": "SENTINEL-2A", "group": "resource", "lat": 25.737434213247496, "lon": 67.35214855177529, "alt_km": 787.7686628834472, "timestamp": "2025-12-25T03:55:55.963503+00:00", "meta": {"OBJECT_NAME": "SENTINEL-2A", "OBJECT_ID": "2015-028A", "EPOCH": "2025-12-24T19:25:09.119712", "MEAN_MOTION": 14.30810533, "ECCENTRICITY": 0.0001053, "INCLINATION": 98.573, "RA_OF_ASC_NODE": 71.1727, "ARG_OF_PERICENTER": 88.7093, "MEAN_ANOMALY": 271.421, "EPHEMERIS_TYPE": 0, "CLASSIFICATION_TYPE": "U", "NORAD_CAT_ID": 40697, "ELEMENT_SET_NO": 999, "REV_AT_EPOCH": 54879, "BSTAR": 0.00011541, "MEAN_MOTION_DOT": 2.59e-06, "MEAN_MOTION_DDOT": 0}, "tle": {"line1": "1 40697U 15028A   25358.80913333  .00000259  00000+0  11541-3 0  9995", "line2": "2 40697  98.5730  71.1727 0001053  88.7093 271.4210 14.30810533548797"}}, "geometry": {"type": "Point", "coordinates": [67.35214855177529, 25.737434213247496]}}]}